{
  "norad_id": 53841,
  "name": "STARLINK-4750",
  "history": [
    {
      "epoch": "2026-04-14T11:38:06.924768Z",
      "apogee_km": 540.5121630081321,
      "perigee_km": 538.9786068410422,
      "latitude_deg": -3.242210773013537e-05,
      "longitude_deg": 116.36616674493857,
      "height_km": 540.5605319254191,
      "semi_major_axis_km": 6917.882384924586,
      "eccentricity": 0.00011084,
      "inclination_deg": 53.2163,
      "raan_deg": 133.5556,
      "arg_perigee_deg": 83.9511,
      "mean_anomaly_deg": 276.1607,
      "mean_motion_rev_day": 15.08839347
    },
    {
      "epoch": "2026-04-15T17:50:26.418048Z",
      "apogee_km": 540.5182047145345,
      "perigee_km": 538.9672160834643,
      "latitude_deg": 3.8673750008460306e-05,
      "longitude_deg": 16.39430756689981,
      "height_km": 540.5406680836569,
      "semi_major_axis_km": 6917.879710398999,
      "eccentricity": 0.0001121,
      "inclination_deg": 53.2163,
      "raan_deg": 127.9054,
      "arg_perigee_deg": 82.7425,
      "mean_anomaly_deg": 277.3695,
      "mean_motion_rev_day": 15.08840222
    },
    {
      "epoch": "2026-04-16T17:41:13.524576Z",
      "apogee_km": 540.5201550441152,
      "perigee_km": 538.9691659758291,
      "latitude_deg": -1.5955933693675827e-05,
      "longitude_deg": 13.258254046357354,
      "height_km": 540.49333710657,
      "semi_major_axis_km": 6917.881660509972,
      "eccentricity": 0.0001121,
      "inclination_deg": 53.2162,
      "raan_deg": 123.445,
      "arg_perigee_deg": 79.0534,
      "mean_anomaly_deg": 281.0584,
      "mean_motion_rev_day": 15.08839584
    },
    {
      "epoch": "2026-04-17T17:32:00.874752Z",
      "apogee_km": 540.5563886368318,
      "perigee_km": 538.9544814645715,
      "latitude_deg": 5.499492175175901e-05,
      "longitude_deg": 10.121175357268752,
      "height_km": 540.4704546605388,
      "semi_major_axis_km": 6917.892435050701,
      "eccentricity": 0.00011578,
      "inclination_deg": 53.2165,
      "raan_deg": 118.9845,
      "arg_perigee_deg": 76.9466,
      "mean_anomaly_deg": 283.1656,
      "mean_motion_rev_day": 15.08836059
    },
    {
      "epoch": "2026-04-18T17:22:48.184320Z",
      "apogee_km": 540.5976865041812,
      "perigee_km": 538.9207884562156,
      "latitude_deg": 1.1026818221069245e-05,
      "longitude_deg": 6.983879846928857,
      "height_km": 540.4791950593693,
      "semi_major_axis_km": 6917.896237480199,
      "eccentricity": 0.0001212,
      "inclination_deg": 53.2161,
      "raan_deg": 114.5237,
      "arg_perigee_deg": 77.8933,
      "mean_anomaly_deg": 282.2195,
      "mean_motion_rev_day": 15.08834815
    },
    {
      "epoch": "2026-04-19T17:13:35.237280Z",
      "apogee_km": 540.6123418199923,
      "perigee_km": 538.8980881291218,
      "latitude_deg": -1.7457507751707527e-05,
      "longitude_deg": 3.8480667658186394,
      "height_km": 540.4805816750792,
      "semi_major_axis_km": 6917.892214974557,
      "eccentricity": 0.0001239,
      "inclination_deg": 53.2164,
      "raan_deg": 110.0633,
      "arg_perigee_deg": 78.5304,
      "mean_anomaly_deg": 281.5827,
      "mean_motion_rev_day": 15.08836131
    },
    {
      "epoch": "2026-04-20T09:07:26.488416Z",
      "apogee_km": 540.5886935685467,
      "perigee_km": 538.9051573364495,
      "latitude_deg": -2.9491194376241393e-05,
      "longitude_deg": 121.7579202322962,
      "height_km": 540.4649863286453,
      "semi_major_axis_km": 6917.883925452498,
      "eccentricity": 0.00012168,
      "inclination_deg": 53.2168,
      "raan_deg": 107.0896,
      "arg_perigee_deg": 77.8044,
      "mean_anomaly_deg": 282.3084,
      "mean_motion_rev_day": 15.08838843
    },
    {
      "epoch": "2026-04-21T16:55:08.995872Z",
      "apogee_km": 540.5844900669517,
      "perigee_km": 538.8882275193755,
      "latitude_deg": -7.682309291072107e-05,
      "longitude_deg": -2.422412616824839,
      "height_km": 540.4410823418905,
      "semi_major_axis_km": 6917.873358793163,
      "eccentricity": 0.0001226,
      "inclination_deg": 53.2172,
      "raan_deg": 101.1422,
      "arg_perigee_deg": 76.9711,
      "mean_anomaly_deg": 283.1417,
      "mean_motion_rev_day": 15.088423
    },
    {
      "epoch": "2026-04-22T05:38:14.249760Z",
      "apogee_km": 540.5962251408291,
      "perigee_km": 538.8916592766691,
      "latitude_deg": -5.4801832896060056e-05,
      "longitude_deg": 163.90459633560718,
      "height_km": 540.449110972049,
      "semi_major_axis_km": 6917.880942208749,
      "eccentricity": 0.0001232,
      "inclination_deg": 53.2177,
      "raan_deg": 98.7634,
      "arg_perigee_deg": 77.0636,
      "mean_anomaly_deg": 283.0493,
      "mean_motion_rev_day": 15.08839819
    },
    {
      "epoch": "2026-04-23T05:29:01.387392Z",
      "apogee_km": 540.6030196897727,
      "perigee_km": 538.8945786128143,
      "latitude_deg": 2.718819509874657e-05,
      "longitude_deg": 160.76801026832507,
      "height_km": 540.5459734864048,
      "semi_major_axis_km": 6917.885799151293,
      "eccentricity": 0.00012348,
      "inclination_deg": 53.2181,
      "raan_deg": 94.3025,
      "arg_perigee_deg": 83.3591,
      "mean_anomaly_deg": 276.7542,
      "mean_motion_rev_day": 15.0883823
    },
    {
      "epoch": "2026-04-24T21:13:40.097568Z",
      "apogee_km": 540.6709345678128,
      "perigee_km": 538.8459937443686,
      "latitude_deg": -1.6061869180724245e-05,
      "longitude_deg": -84.45834807620997,
      "height_km": 540.4722225898795,
      "semi_major_axis_km": 6917.89546415609,
      "eccentricity": 0.0001319,
      "inclination_deg": 53.2184,
      "raan_deg": 86.8697,
      "arg_perigee_deg": 78.485,
      "mean_anomaly_deg": 281.629,
      "mean_motion_rev_day": 15.08835068
    },
    {
      "epoch": "2026-04-25T08:21:22.072896Z",
      "apogee_km": 540.6845801200743,
      "perigee_km": 538.8236674077825,
      "latitude_deg": 2.4656442387088322e-05,
      "longitude_deg": 106.0776607446093,
      "height_km": 540.4522344078113,
      "semi_major_axis_km": 6917.891123763929,
      "eccentricity": 0.0001345,
      "inclination_deg": 53.2182,
      "raan_deg": 84.7876,
      "arg_perigee_deg": 77.7298,
      "mean_anomaly_deg": 282.3845,
      "mean_motion_rev_day": 15.08836488
    },
    {
      "epoch": "2026-04-26T14:33:41.848704Z",
      "apogee_km": 540.7286797942133,
      "perigee_km": 538.7772813884885,
      "latitude_deg": 1.1239568402614439e-05,
      "longitude_deg": 6.1053563384611795,
      "height_km": 540.5008694809276,
      "semi_major_axis_km": 6917.889980591351,
      "eccentricity": 0.00014104,
      "inclination_deg": 53.2187,
      "raan_deg": 79.1382,
      "arg_perigee_deg": 81.2808,
      "mean_anomaly_deg": 278.8344,
      "mean_motion_rev_day": 15.08836862
    },
    {
      "epoch": "2026-04-27T20:46:01.666848Z",
      "apogee_km": 540.7853743417927,
      "perigee_km": 538.7210758986166,
      "latitude_deg": 2.152523350620068e-06,
      "longitude_deg": -93.86812110096234,
      "height_km": 540.5312321020201,
      "semi_major_axis_km": 6917.890225120204,
      "eccentricity": 0.0001492,
      "inclination_deg": 53.2188,
      "raan_deg": 73.4878,
      "arg_perigee_deg": 83.4533,
      "mean_anomaly_deg": 276.6629,
      "mean_motion_rev_day": 15.08836782
    }
  ]
}